{
    "links": {
        "self": "http://www.neowsapp.com/rest/v1/neo/54054272?api_key=iIulBulltgU6a56xZRHN4H3l9WmuAYTsLGpBGhQ2"
    },
    "id": "54054272",
    "neo_reference_id": "54054272",
    "name": "(2020 RD5)",
    "designation": "2020 RD5",
    "nasa_jpl_url": "http://ssd.jpl.nasa.gov/sbdb.cgi?sstr=54054272",
    "absolute_magnitude_h": 24.04,
    "estimated_diameter": {
        "kilometers": {
            "estimated_diameter_min": 0.0413575665,
            "estimated_diameter_max": 0.0924783301
        },
        "meters": {
            "estimated_diameter_min": 41.3575664881,
            "estimated_diameter_max": 92.4783300513
        },
        "miles": {
            "estimated_diameter_min": 0.0256983924,
            "estimated_diameter_max": 0.0574633524
        },
        "feet": {
            "estimated_diameter_min": 135.6875584367,
            "estimated_diameter_max": 303.4066043654
        }
    },
    "is_potentially_hazardous_asteroid": false,
    "close_approach_data": [
        {
            "close_approach_date": "2020-09-22",
            "close_approach_date_full": "2020-Sep-22 03:17",
            "epoch_date_close_approach": 1600744620000,
            "relative_velocity": {
                "kilometers_per_second": "17.2092604907",
                "kilometers_per_hour": "61953.3377666802",
                "miles_per_hour": "38495.3947917464"
            },
            "miss_distance": {
                "astronomical": "0.0271728231",
                "lunar": "10.5702281859",
                "kilometers": "4064996.457646797",
                "miles": "2525871.6725559186"
            },
            "orbiting_body": "Earth"
        },
        {
            "close_approach_date": "2023-03-24",
            "close_approach_date_full": "2023-Mar-24 10:17",
            "epoch_date_close_approach": 1679653020000,
            "relative_velocity": {
                "kilometers_per_second": "29.772585142",
                "kilometers_per_hour": "107181.3065110603",
                "miles_per_hour": "66598.295704053"
            },
            "miss_distance": {
                "astronomical": "0.4491308979",
                "lunar": "174.7119192831",
                "kilometers": "67189025.677027473",
                "miles": "41749324.6137982074"
            },
            "orbiting_body": "Earth"
        },
        {
            "close_approach_date": "2110-08-21",
            "close_approach_date_full": "2110-Aug-21 06:31",
            "epoch_date_close_approach": 4438045860000,
            "relative_velocity": {
                "kilometers_per_second": "14.5484207437",
                "kilometers_per_hour": "52374.3146771958",
                "miles_per_hour": "32543.3623615054"
            },
            "miss_distance": {
                "astronomical": "0.1298416286",
                "lunar": "50.5083935254",
                "kilometers": "19424031.075891082",
                "miles": "12069533.2388656516"
            },
            "orbiting_body": "Venus"
        }
    ],
    "orbital_data": {
        "orbit_id": "9",
        "orbit_determination_date": "2020-09-22 06:46:38",
        "first_observation_date": "2020-09-13",
        "last_observation_date": "2020-09-22",
        "data_arc_in_days": 9,
        "observations_used": 86,
        "orbit_uncertainty": "8",
        "minimum_orbit_intersection": ".0141205",
        "jupiter_tisserand_invariant": "3.950",
        "epoch_osculation": "2459107.5",
        "eccentricity": ".5926012649767365",
        "semi_major_axis": "1.715228301950281",
        "inclination": "7.605884830860933",
        "ascending_node_longitude": "174.9297454052013",
        "orbital_period": "820.5051816000191",
        "perihelion_distance": ".6987818404906446",
        "perihelion_argument": "265.6686455044423",
        "aphelion_distance": "2.731674763409917",
        "perihelion_time": "2459163.724997960517",
        "mean_anomaly": "335.3310524787725",
        "mean_motion": ".4387540847676124",
        "equinox": "J2000",
        "orbit_class": {
            "orbit_class_type": "APO",
            "orbit_class_description": "Near-Earth asteroid orbits which cross the Earth’s orbit similar to that of 1862 Apollo",
            "orbit_class_range": "a (semi-major axis) > 1.0 AU; q (perihelion) < 1.017 AU"
        }
    },
    "is_sentry_object": false
}